sat12230
1 12230U 78026BX  20046.68874810  .00000346  00000-0  67666-4 0  9993
2 12230  97.8388  55.4987 0069783 351.5680   8.4346 14.67277717 39378
